$$SOE
2459580.500000000, A.D. 2022-Jan-01 00:00:00.0000, 3.132111932361884E+08, 2.889370551309180E+08, 1.632131835643378E+07,
2459587.500000000, A.D. 2022-Jan-08 00:00:00.0000, 3.053499866024998E+08, 2.950933153530172E+08, 1.469363418339628E+07,
2459594.500000000, A.D. 2022-Jan-15 00:00:00.0000, 2.972955339509377E+08, 3.010627537159976E+08, 1.305665041012269E+07,
2459601.500000000, A.D. 2022-Jan-22 00:00:00.0000, 2.890508220401378E+08, 3.068394509738098E+08, 1.141131010179874E+07,
2459608.500000000, A.D. 2022-Jan-29 00:00:00.0000, 2.806190021366819E+08, 3.124174517871179E+08, 9.758582207994640E+06,
2459615.500000000, A.D. 2022-Feb-05 00:00:00.0000, 2.720033946559048E+08, 3.177907660016374E+08, 8.099462465023264E+06,
2459622.500000000, A.D. 2022-Feb-12 00:00:00.0000, 2.632074962285148E+08, 3.229533692136295E+08, 6.434974015389159E+06,
2459629.500000000, A.D. 2022-Feb-19 00:00:00.0000, 2.542349878665390E+08, 3.278992050183800E+08, 4.766168056046963E+06,
2459636.500000000, A.D. 2022-Feb-26 00:00:00.0000, 2.450897429123056E+08, 3.326221882485506E+08, 3.094124573190972E+06,
2459643.500000000, A.D. 2022-Mar-05 00:00:00.0000, 2.357758349241056E+08, 3.371162086184726E+08, 1.419953094734743E+06,
2459650.500000000, A.D. 2022-Mar-12 00:00:00.0000, 2.262975457132461E+08, 3.413751347435885E+08, -2.552065695763379E+05,
2459657.500000000, A.D. 2022-Mar-19 00:00:00.0000, 2.166593735942145E+08, 3.453928185998143E+08, -1.930183609501779E+06,
2459664.500000000, A.D. 2022-Mar-26 00:00:00.0000, 2.068660418583527E+08, 3.491631004555094E+08, -3.603775525003955E+06,
2459671.500000000, A.D. 2022-Apr-02 00:00:00.0000, 1.969225075238183E+08, 3.526798142608557E+08, -5.274747482982904E+06,
2459678.500000000, A.D. 2022-Apr-09 00:00:00.0000, 1.868339706156645E+08, 3.559367935425143E+08, -6.941831751070634E+06,
2459685.500000000, A.D. 2022-Apr-16 00:00:00.0000, 1.766058843123280E+08, 3.589278785031423E+08, -8.603727195041254E+06,
2459692.500000000, A.D. 2022-Apr-23 00:00:00.0000, 1.662439646656204E+08, 3.616469254545479E+08, -1.025909864297101E+07,
2459699.500000000, A.D. 2022-Apr-30 00:00:00.0000, 1.557541979911327E+08, 3.640878163820601E+08, -1.190657613623491E+07,
2459706.500000000, A.D. 2022-May-07 00:00:00.0000, 1.451428489535783E+08, 3.662444667180770E+08, -1.354475451824133E+07,
2459713.500000000, A.D. 2022-May-14 00:00:00.0000, 1.344164706990562E+08, 3.681108344162921E+08, -1.517219325061966E+07,
2459720.500000000, A.D. 2022-May-21 00:00:00.0000, 1.235819149576923E+08, 3.696809311333777E+08, -1.678741621969233E+07,
2459727.500000000, A.D. 2022-May-28 00:00:00.0000, 1.126463415836181E+08, 3.709488346083695E+08, -1.838891157927194E+07,
2459734.500000000, A.D. 2022-Jun-04 00:00:00.0000, 1.016172277486827E+08, 3.719087019772176E+08, -1.997513169335373E+07,
2459741.500000000, A.D. 2022-Jun-11 00:00:00.0000, 9.050237686674292E+07, 3.725547840744262E+08, -2.154449320539050E+07,
2459748.500000000, A.D. 2022-Jun-18 00:00:00.0000, 7.930992721134898E+07, 3.728814407833146E+08, -2.309537725116609E+07,
2459755.500000000, A.D. 2022-Jun-25 00:00:00.0000, 6.804836017165910E+07, 3.728831574477453E+08, -2.462612983615957E+07,
2459762.500000000, A.D. 2022-Jul-02 00:00:00.0000, 5.672650818664333E+07, 3.725545623226524E+08, -2.613506241146690E+07,
2459769.500000000, A.D. 2022-Jul-09 00:00:00.0000, 4.535356264394165E+07, 3.718904452802243E+08, -2.762045268702322E+07,
2459776.500000000, A.D. 2022-Jul-16 00:00:00.0000, 3.393908157520622E+07, 3.708857788913673E+08, -2.908054560743289E+07,
2459783.500000000, A.D. 2022-Jul-23 00:00:00.0000, 2.249299482959970E+07, 3.695357419884092E+08, -3.051355430235712E+07,
2459790.500000000, A.D. 2022-Jul-30 00:00:00.0000, 1.102560667658385E+07, 3.678357423683312E+08, -3.191766131224631E+07,
2459797.500000000, A.D. 2022-Aug-06 00:00:00.0000, -4.524007099863855E+05, 3.657814392954419E+08, -3.329102038674748E+07,
2459804.500000000, A.D. 2022-Aug-13 00:00:00.0000, -1.192996385907752E+07, 3.633687685590110E+08, -3.463175857710963E+07,
2459811.500000000, A.D. 2022-Aug-20 00:00:00.0000, -2.339563643031593E+07, 3.605939695596822E+08, -3.593797853952786E+07,
2459818.500000000, A.D. 2022-Aug-27 00:00:00.0000, -3.483758957016017E+07, 3.574536136587110E+08, -3.720776113322392E+07,
2459825.500000000, A.D. 2022-Sep-03 00:00:00.0000, -4.624361413661972E+07, 3.539446336282957E+08, -3.843916836343403E+07,
2459832.500000000, A.D. 2022-Sep-10 00:00:00.0000, -5.760112489760485E+07, 3.500643541627299E+08, -3.963024669500972E+07,
2459839.500000000, A.D. 2022-Sep-17 00:00:00.0000, -6.889716687105668E+07, 3.458105233659948E+08, -4.077903075928316E+07,
2459846.500000000, A.D. 2022-Sep-24 00:00:00.0000, -8.011842394461226E+07, 3.411813450569693E+08, -4.188354748243313E+07,
2459853.500000000, A.D. 2022-Oct-01 00:00:00.0000, -9.125122973385532E+07, 3.361755117324992E+08, -4.294182067496206E+07,
2459860.500000000, A.D. 2022-Oct-08 00:00:00.0000, -1.022815804715337E+08, 3.307922385427477E+08, -4.395187608945534E+07,
2459867.500000000, A.D. 2022-Oct-15 00:00:00.0000, -1.131951510570463E+08, 3.250312992824768E+08, -4.491174677294226E+07,
2459874.500000000, A.D. 2022-Oct-22 00:00:00.0000, -1.239773166336412E+08, 3.188930624880465E+08, -4.581947865743035E+07,
2459881.500000000, A.D. 2022-Oct-29 00:00:00.0000, -1.346131773679669E+08, 3.123785247779474E+08, -4.667313682757242E+07,
2459888.500000000, A.D. 2022-Nov-05 00:00:00.0000, -1.450875844987292E+08, 3.054893438803844E+08, -4.747081242791447E+07,
2459895.500000000, A.D. 2022-Nov-12 00:00:00.0000, -1.553851697603495E+08, 2.982278722952247E+08, -4.821062991759253E+07,
2459902.500000000, A.D. 2022-Nov-19 00:00:00.0000, -1.654903790088425E+08, 2.905971902785622E+08, -4.889075466746624E+07,
2459909.500000000, A.D. 2022-Nov-26 00:00:00.0000, -1.753875098640790E+08, 2.826011373608829E+08, -4.950940093073972E+07,
2459916.500000000, A.D. 2022-Dec-03 00:00:00.0000, -1.850607532408327E+08, 2.742443419682600E+08, -5.006484017019671E+07,
2459923.500000000, A.D. 2022-Dec-10 00:00:00.0000, -1.944942387162995E+08, 2.655322487221072E+08, -5.055540970347328E+07,
2459930.500000000, A.D. 2022-Dec-17 00:00:00.0000, -2.036720836513051E+08, 2.564711429292896E+08, -5.097952162069692E+07,
2459937.500000000, A.D. 2022-Dec-24 00:00:00.0000, -2.125784458409394E+08, 2.470681717190702E+08, -5.133567193087183E+07,
2459944.500000000, A.D. 2022-Dec-31 00:00:00.0000, -2.211975791603774E+08, 2.373313614489722E+08, -5.162244989283491E+07,
2459951.500000000, A.D. 2023-Jan-07 00:00:00.0000, -2.295138918416748E+08, 2.272696318569349E+08, -5.183854738646178E+07,
2459958.500000000, A.D. 2023-Jan-14 00:00:00.0000, -2.375120090412427E+08, 2.168928069839388E+08, -5.198276801932333E+07,
2459965.500000000, A.D. 2023-Jan-21 00:00:00.0000, -2.451768399624483E+08, 2.062116192473744E+08, -5.205403607860766E+07,
2459972.500000000, A.D. 2023-Jan-28 00:00:00.0000, -2.524936454038659E+08, 1.952377060476826E+08, -5.205140557872890E+07,
2459979.500000000, A.D. 2023-Feb-04 00:00:00.0000, -2.594481054174029E+08, 1.839836015498843E+08, -5.197406902979744E+07,
2459986.500000000, A.D. 2023-Feb-11 00:00:00.0000, -2.660263882880640E+08, 1.724627231252238E+08, -5.182136567083205E+07,
2459993.500000000, A.D. 2023-Feb-18 00:00:00.0000, -2.722152202464728E+08, 1.606893513770589E+08, -5.159278911754950E+07,
2460000.500000000, A.D. 2023-Feb-25 00:00:00.0000, -2.780019549430262E+08, 1.486786034076246E+08, -5.128799434692046E+07,
2460007.500000000, A.D. 2023-Mar-04 00:00:00.0000, -2.833746418327479E+08, 1.364463992467320E+08, -5.090680391302867E+07,
2460014.500000000, A.D. 2023-Mar-11 00:00:00.0000, -2.883220926663776E+08, 1.240094214403183E+08, -5.044921328944559E+07,
2460021.500000000, A.D. 2023-Mar-18 00:00:00.0000, -2.928339452514970E+08, 1.113850678507192E+08, -4.991539524831770E+07,
2460028.500000000, A.D. 2023-Mar-25 00:00:00.0000, -2.969007234918410E+08, 9.859139783278278E+07, -4.930570321197979E+07,
2460035.500000000, A.D. 2023-Apr-01 00:00:00.0000, -3.005138925064582E+08, 8.564707250232656E+07, -4.862067350988693E+07,
2460042.500000000, A.D. 2023-Apr-08 00:00:00.0000, -3.036659087011556E+08, 7.257129075372915E+07, -4.786102632421179E+07,
2460049.500000000, A.D. 2023-Apr-15 00:00:00.0000, -3.063502664380829E+08, 5.938372045591486E+07, -4.702766515686603E+07,
2460056.500000000, A.D. 2023-Apr-22 00:00:00.0000, -3.085615388723324E+08, 4.610442241090657E+07, -4.612167520879121E+07,
2460063.500000000, A.D. 2023-Apr-29 00:00:00.0000, -3.102954096715383E+08, 3.275377005347088E+07, -4.514432072893308E+07,
2460070.500000000, A.D. 2023-May-06 00:00:00.0000, -3.115486969195356E+08, 1.935236746552781E+07, -4.409704103326690E+07,
2460077.500000000, A.D. 2023-May-13 00:00:00.0000, -3.123193698374265E+08, 5.920965661989890E+06, -4.298144520779602E+07,
2460084.500000000, A.D. 2023-May-20 00:00:00.0000, -3.126065578602765E+08, -7.519622443822237E+06, -4.179930560674673E+07,
2460091.500000000, A.D. 2023-May-27 00:00:00.0000, -3.124105517602451E+08, -2.094860750331608E+07, -4.055255023006549E+07,
2460098.500000000, A.D. 2023-Jun-03 00:00:00.0000, -3.117327967642326E+08, -3.434530868236817E+07, -3.924325406423080E+07,
2460105.500000000, A.D. 2023-Jun-10 00:00:00.0000, -3.105758777793633E+08, -4.768923721758976E+07, -3.787362949071026E+07,
2460112.500000000, A.D. 2023-Jun-17 00:00:00.0000, -3.089434969045286E+08, -6.096017777743249E+07, -3.644601589443073E+07,
2460119.500000000, A.D. 2023-Jun-24 00:00:00.0000, -3.068404432912024E+08, -7.413826675453395E+07, -3.496286862781088E+07,
2460126.500000000, A.D. 2023-Jul-01 00:00:00.0000, -3.042725555803553E+08, -8.720406590462658E+07, -3.342674742132557E+07,
2460133.500000000, A.D. 2023-Jul-08 00:00:00.0000, -3.012466791505294E+08, -1.001386298342370E+08, -3.184030415677336E+07,
2460140.500000000, A.D. 2023-Jul-15 00:00:00.0000, -2.977706200870498E+08, -1.129235695875804E+08, -3.020627025546561E+07,
2460147.500000000, A.D. 2023-Jul-22 00:00:00.0000, -2.938530930462440E+08, -1.255411128892067E+08, -2.852744422653368E+07,
$$EOE